ONEWEB-0212             
1 48791U 21045AA  25216.58324709  .00000144  00000+0  34886-3 0  9995
2 48791  87.9076 322.3186 0001874  98.3105 261.8238 13.15549716202803
ONEWEB-0227             
1 48792U 21045AB  25216.35427332  .00000167  00000+0  40885-3 0  9998
2 48792  87.9077 322.3840 0001949  94.0698 266.0655 13.15548493202727
ONEWEB-0226             
1 48793U 21045AC  25216.34793447  .00000044  00000+0  84038-4 0  9994
2 48793  87.9082 322.3895 0002285  93.3109 266.8282 13.15549702202691
ONEWEB-0224             
1 48794U 21045AD  25216.31150146  .00000731  00000+0  19065-2 0  9994
2 48794  87.9080 322.4338 0001324  70.5291 289.5982 13.15552424202611
ONEWEB-0233             
1 48795U 21045AE  25216.31609204 -.00000026  00000+0 -10403-3 0  9996
2 48795  87.9087 322.4416 0001987  88.0949 272.0409 13.15551151202634
ONEWEB-0190             
1 48796U 21045AF  25216.37963554 -.00000082  00000+0 -25196-3 0  9991
2 48796  87.9085 322.3935 0002376  80.5301 279.6098 13.15547254202715
ONEWEB-0236             
1 48797U 21045AG  25216.32101477 -.00000644  00000+0 -17439-2 0  9999
2 48797  87.9094 322.4152 0001800 101.6270 258.5063 13.15550840202598
ONEWEB-0248             
1 48798U 21045AH  25216.33366686 -.00000179  00000+0 -50919-3 0  9990
2 48798  87.9081 322.3665 0001853  78.0660 282.0678 13.15550158202755
ONEWEB-0225             
1 48799U 21045AJ  25216.35585307  .00000109  00000+0  25625-3 0  9993
2 48799  87.9087 322.3940 0002258  83.5588 276.5799 13.15546356202766
ONEWEB-0215             
1 48800U 21045AK  25216.32575306 -.00000101  00000+0 -30186-3 0  9993
2 48800  87.9084 322.3503 0002118  78.6648 281.4721 13.15548485202639
ONEWEB-0216             
1 48801U 21045AL  25216.33527163  .00000531  00000+0  13768-2 0  9994
2 48801  87.9063 322.3934 0002132  99.5517 260.5854 13.15545152202642
ONEWEB-0239             
1 48802U 21045AM  25216.34001893 -.00000057  00000+0 -18451-3 0  9993
2 48802  87.9078 322.4055 0001885  73.2322 286.9015 13.15548377202688
ONEWEB-0249             
1 48967U 21060A   25216.22076324 -.00000192  00000+0 -53515-3 0  9990
2 48967  87.9046 291.9619 0001907  96.8404 263.2943 13.16594021197902
ONEWEB-0250             
1 48968U 21060B   25216.26480338  .00000011  00000+0 -44593-5 0  9996
2 48968  87.9040 290.7468 0001210  72.0162 288.1106 13.25810900198220
ONEWEB-0252             
1 48970U 21060D   25216.25243104 -.00000082  00000+0 -24706-3 0  9997
2 48970  87.9040 291.9484 0002349 102.1369 258.0025 13.16595007197955
ONEWEB-0253             
1 48971U 21060E   25216.24134692  .00000004  00000+0 -24273-4 0  9991
2 48971  87.9042 291.9545 0002102  92.3741 267.7631 13.16596019197883
ONEWEB-0254             
1 48972U 21060F   25216.25086046 -.00000060  00000+0 -19116-3 0  9994
2 48972  87.9044 291.9384 0001977  85.3713 274.7644 13.16595045197887
