[{"OBJECT_NAME":"ONEWEB-0212","OBJECT_ID":"2021-045AA","EPOCH":"2025-08-04T13:59:52.548576","MEAN_MOTION":13.15549716,"ECCENTRICITY":0.0001874,"INCLINATION":87.9076,"RA_OF_ASC_NODE":322.3186,"ARG_OF_PERICENTER":98.3105,"MEAN_ANOMALY":261.8238,"EPHEMERIS_TYPE":0,"CLASSIFICATION_TYPE":"U","NORAD_CAT_ID":48791,"ELEMENT_SET_NO":999,"REV_AT_EPOCH":20280,"BSTAR":0.00034886,"MEAN_MOTION_DOT":1.44e-6,"MEAN_MOTION_DDOT":0},{"OBJECT_NAME":"ONEWEB-0227","OBJECT_ID":"2021-045AB","EPOCH":"2025-08-04T08:30:09.214848","MEAN_MOTION":13.15548493,"ECCENTRICITY":0.0001949,"INCLINATION":87.9077,"RA_OF_ASC_NODE":322.384,"ARG_OF_PERICENTER":94.0698,"MEAN_ANOMALY":266.0655,"EPHEMERIS_TYPE":0,"CLASSIFICATION_TYPE":"U","NORAD_CAT_ID":48792,"ELEMENT_SET_NO":999,"REV_AT_EPOCH":20272,"BSTAR":0.00040885,"MEAN_MOTION_DOT":1.67e-6,"MEAN_MOTION_DDOT":0},{"OBJECT_NAME":"ONEWEB-0226","OBJECT_ID":"2021-045AC","EPOCH":"2025-08-04T08:21:01.538208","MEAN_MOTION":13.15549702,"ECCENTRICITY":0.0002285,"INCLINATION":87.9082,"RA_OF_ASC_NODE":322.3895,"ARG_OF_PERICENTER":93.3109,"MEAN_ANOMALY":266.8282,"EPHEMERIS_TYPE":0,"CLASSIFICATION_TYPE":"U","NORAD_CAT_ID":48793,"ELEMENT_SET_NO":999,"REV_AT_EPOCH":20269,"BSTAR":8.4038e-5,"MEAN_MOTION_DOT":4.4e-7,"MEAN_MOTION_DDOT":0},{"OBJECT_NAME":"ONEWEB-0224","OBJECT_ID":"2021-045AD","EPOCH":"2025-08-04T07:28:33.726144","MEAN_MOTION":13.15552424,"ECCENTRICITY":0.0001324,"INCLINATION":87.908,"RA_OF_ASC_NODE":322.4338,"ARG_OF_PERICENTER":70.5291,"MEAN_ANOMALY":289.5982,"EPHEMERIS_TYPE":0,"CLASSIFICATION_TYPE":"U","NORAD_CAT_ID":48794,"ELEMENT_SET_NO":999,"REV_AT_EPOCH":20261,"BSTAR":0.0019065,"MEAN_MOTION_DOT":7.31e-6,"MEAN_MOTION_DDOT":0},{"OBJECT_NAME":"ONEWEB-0233","OBJECT_ID":"2021-045AE","EPOCH":"2025-08-04T07:35:10.352256","MEAN_MOTION":13.15551151,"ECCENTRICITY":0.0001987,"INCLINATION":87.9087,"RA_OF_ASC_NODE":322.4416,"ARG_OF_PERICENTER":88.0949,"MEAN_ANOMALY":272.0409,"EPHEMERIS_TYPE":0,"CLASSIFICATION_TYPE":"U","NORAD_CAT_ID":48795,"ELEMENT_SET_NO":999,"REV_AT_EPOCH":20263,"BSTAR":-0.00010403,"MEAN_MOTION_DOT":-2.6e-7,"MEAN_MOTION_DDOT":0},{"OBJECT_NAME":"ONEWEB-0190","OBJECT_ID":"2021-045AF","EPOCH":"2025-08-04T09:06:40.510656","MEAN_MOTION":13.15547254,"ECCENTRICITY":0.0002376,"INCLINATION":87.9085,"RA_OF_ASC_NODE":322.3935,"ARG_OF_PERICENTER":80.5301,"MEAN_ANOMALY":279.6098,"EPHEMERIS_TYPE":0,"CLASSIFICATION_TYPE":"U","NORAD_CAT_ID":48796,"ELEMENT_SET_NO":999,"REV_AT_EPOCH":20271,"BSTAR":-0.00025196,"MEAN_MOTION_DOT":-8.2e-7,"MEAN_MOTION_DDOT":0},{"OBJECT_NAME":"ONEWEB-0236","OBJECT_ID":"2021-045AG","EPOCH":"2025-08-04T07:42:15.676128","MEAN_MOTION":13.1555084,"ECCENTRICITY":0.00018,"INCLINATION":87.9094,"RA_OF_ASC_NODE":322.4152,"ARG_OF_PERICENTER":101.627,"MEAN_ANOMALY":258.5063,"EPHEMERIS_TYPE":0,"CLASSIFICATION_TYPE":"U","NORAD_CAT_ID":48797,"ELEMENT_SET_NO":999,"REV_AT_EPOCH":20259,"BSTAR":-0.0017439,"MEAN_MOTION_DOT":-6.44e-6,"MEAN_MOTION_DDOT":0},{"OBJECT_NAME":"ONEWEB-0248","OBJECT_ID":"2021-045AH","EPOCH":"2025-08-04T08:00:28.816704","MEAN_MOTION":13.15550158,"ECCENTRICITY":0.0001853,"INCLINATION":87.9081,"RA_OF_ASC_NODE":322.3665,"ARG_OF_PERICENTER":78.066,"MEAN_ANOMALY":282.0678,"EPHEMERIS_TYPE":0,"CLASSIFICATION_TYPE":"U","NORAD_CAT_ID":48798,"ELEMENT_SET_NO":999,"REV_AT_EPOCH":20275,"BSTAR":-0.00050919,"MEAN_MOTION_DOT":-1.79e-6,"MEAN_MOTION_DDOT":0},{"OBJECT_NAME":"ONEWEB-0225","OBJECT_ID":"2021-045AJ","EPOCH":"2025-08-04T08:32:25.705248","MEAN_MOTION":13.15546356,"ECCENTRICITY":0.0002258,"INCLINATION":87.9087,"RA_OF_ASC_NODE":322.394,"ARG_OF_PERICENTER":83.5588,"MEAN_ANOMALY":276.5799,"EPHEMERIS_TYPE":0,"CLASSIFICATION_TYPE":"U","NORAD_CAT_ID":48799,"ELEMENT_SET_NO":999,"REV_AT_EPOCH":20276,"BSTAR":0.00025625,"MEAN_MOTION_DOT":1.09e-6,"MEAN_MOTION_DDOT":0},{"OBJECT_NAME":"ONEWEB-0215","OBJECT_ID":"2021-045AK","EPOCH":"2025-08-04T07:49:05.064384","MEAN_MOTION":13.15548485,"ECCENTRICITY":0.0002118,"INCLINATION":87.9084,"RA_OF_ASC_NODE":322.3503,"ARG_OF_PERICENTER":78.6648,"MEAN_ANOMALY":281.4721,"EPHEMERIS_TYPE":0,"CLASSIFICATION_TYPE":"U","NORAD_CAT_ID":48800,"ELEMENT_SET_NO":999,"REV_AT_EPOCH":20263,"BSTAR":-0.00030186,"MEAN_MOTION_DOT":-1.01e-6,"MEAN_MOTION_DDOT":0},{"OBJECT_NAME":"ONEWEB-0216","OBJECT_ID":"2021-045AL","EPOCH":"2025-08-04T08:02:47.468832","MEAN_MOTION":13.15545152,"ECCENTRICITY":0.0002132,"INCLINATION":87.9063,"RA_OF_ASC_NODE":322.3934,"ARG_OF_PERICENTER":99.5517,"MEAN_ANOMALY":260.5854,"EPHEMERIS_TYPE":0,"CLASSIFICATION_TYPE":"U","NORAD_CAT_ID":48801,"ELEMENT_SET_NO":999,"REV_AT_EPOCH":20264,"BSTAR":0.0013768,"MEAN_MOTION_DOT":5.31e-6,"MEAN_MOTION_DDOT":0},{"OBJECT_NAME":"ONEWEB-0239","OBJECT_ID":"2021-045AM","EPOCH":"2025-08-04T08:09:37.635552","MEAN_MOTION":13.15548377,"ECCENTRICITY":0.0001885,"INCLINATION":87.9078,"RA_OF_ASC_NODE":322.4055,"ARG_OF_PERICENTER":73.2322,"MEAN_ANOMALY":286.9015,"EPHEMERIS_TYPE":0,"CLASSIFICATION_TYPE":"U","NORAD_CAT_ID":48802,"ELEMENT_SET_NO":999,"REV_AT_EPOCH":20268,"BSTAR":-0.00018451,"MEAN_MOTION_DOT":-5.7e-7,"MEAN_MOTION_DDOT":0},{"OBJECT_NAME":"ONEWEB-0249","OBJECT_ID":"2021-060A","EPOCH":"2025-08-04T05:17:53.943936","MEAN_MOTION":13.16594021,"ECCENTRICITY":0.0001907,"INCLINATION":87.9046,"RA_OF_ASC_NODE":291.9619,"ARG_OF_PERICENTER":96.8404,"MEAN_ANOMALY":263.2943,"EPHEMERIS_TYPE":0,"CLASSIFICATION_TYPE":"U","NORAD_CAT_ID":48967,"ELEMENT_SET_NO":999,"REV_AT_EPOCH":19790,"BSTAR":-0.00053515,"MEAN_MOTION_DOT":-1.92e-6,"MEAN_MOTION_DDOT":0},{"OBJECT_NAME":"ONEWEB-0250","OBJECT_ID":"2021-060B","EPOCH":"2025-08-04T06:21:19.012032","MEAN_MOTION":13.258109,"ECCENTRICITY":0.000121,"INCLINATION":87.904,"RA_OF_ASC_NODE":290.7468,"ARG_OF_PERICENTER":72.0162,"MEAN_ANOMALY":288.1106,"EPHEMERIS_TYPE":0,"CLASSIFICATION_TYPE":"U","NORAD_CAT_ID":48968,"ELEMENT_SET_NO":999,"REV_AT_EPOCH":19822,"BSTAR":-4.4593e-6,"MEAN_MOTION_DOT":1.1e-7,"MEAN_MOTION_DDOT":0},{"OBJECT_NAME":"ONEWEB-0252","OBJECT_ID":"2021-060D","EPOCH":"2025-08-04T06:03:30.041856","MEAN_MOTION":13.16595007,"ECCENTRICITY":0.0002349,"INCLINATION":87.904,"RA_OF_ASC_NODE":291.9484,"ARG_OF_PERICENTER":102.1369,"MEAN_ANOMALY":258.0025,"EPHEMERIS_TYPE":0,"CLASSIFICATION_TYPE":"U","NORAD_CAT_ID":48970,"ELEMENT_SET_NO":999,"REV_AT_EPOCH":19795,"BSTAR":-0.00024706,"MEAN_MOTION_DOT":-8.2e-7,"MEAN_MOTION_DDOT":0},{"OBJECT_NAME":"ONEWEB-0253","OBJECT_ID":"2021-060E","EPOCH":"2025-08-04T05:47:32.373888","MEAN_MOTION":13.16596019,"ECCENTRICITY":0.0002102,"INCLINATION":87.9042,"RA_OF_ASC_NODE":291.9545,"ARG_OF_PERICENTER":92.3741,"MEAN_ANOMALY":267.7631,"EPHEMERIS_TYPE":0,"CLASSIFICATION_TYPE":"U","NORAD_CAT_ID":48971,"ELEMENT_SET_NO":999,"REV_AT_EPOCH":19788,"BSTAR":-2.4273e-5,"MEAN_MOTION_DOT":4.0e-8,"MEAN_MOTION_DDOT":0},{"OBJECT_NAME":"ONEWEB-0254","OBJECT_ID":"2021-060F","EPOCH":"2025-08-04T06:01:14.343744","MEAN_MOTION":13.16595045,"ECCENTRICITY":0.0001977,"INCLINATION":87.9044,"RA_OF_ASC_NODE":291.9384,"ARG_OF_PERICENTER":85.3713,"MEAN_ANOMALY":274.7644,"EPHEMERIS_TYPE":0,"CLASSIFICATION_TYPE":"U","NORAD_CAT_ID":48972,"ELEMENT_SET_NO":999,"REV_AT_EPOCH":19788,"BSTAR":-0.00019116,"MEAN_MOTION_DOT":-6.0e-7,"MEAN_MOTION_DDOT":0}]
